#dV2023  1  2 10  0  0.00000000    1682       CTS   FIT  GFZ
## 2243 122400.00000000    30.00000000 59946 0.4166666666667
+    1   L65  0  0  0  0  0  0  0  0  0  0  0  0  0  0  0  0
+          0  0  0  0  0  0  0  0  0  0  0  0  0  0  0  0  0
+          0  0  0  0  0  0  0  0  0  0  0  0  0  0  0  0  0
+          0  0  0  0  0  0  0  0  0  0  0  0  0  0  0  0  0
+          0  0  0  0  0  0  0  0  0  0  0  0  0  0  0  0  0
++         0  0  0  0  0  0  0  0  0  0  0  0  0  0  0  0  0
++         0  0  0  0  0  0  0  0  0  0  0  0  0  0  0  0  0
++         0  0  0  0  0  0  0  0  0  0  0  0  0  0  0  0  0
++         0  0  0  0  0  0  0  0  0  0  0  0  0  0  0  0  0
++         0  0  0  0  0  0  0  0  0  0  0  0  0  0  0  0  0
%c L  cc GPS ccc cccc cccc cccc cccc ccccc ccccc ccccc ccccc
%c cc cc ccc ccc cccc cccc cccc cccc ccccc ccccc ccccc ccccc
%f  0.0000000  0.000000000  0.00000000000  0.000000000000000
%f  0.0000000  0.000000000  0.00000000000  0.000000000000000
%i    0    0    0    0      0      0      0      0         0
%i    0    0    0    0      0      0      0      0         0
/* CCCCCCCCCCCCCCCCCCCCCCCCCCCCCCCCCCCCCCCCCCCCCCCCCCCCCCCCCCCCCCCCCCCCCCCCCCCCC
/* C                             GFZ RSO-ORBIT                                 C
/* C DOI: https://doi.org/10.5880/GFZ_ORBIT/RSO/L65_G_v02                      C
/* C                                                                           C
/* C DORIS        RMS: not applicable                                          C
/* C GNSS-E Code  RMS: not applicable                                          C
/* C GNSS-E Phase RMS: not applicable                                          C
/* C GNSS-G Code  RMS:  48.145 [cm]   Obs.acc.:     14302 Obs.eli.:      1334  C
/* C GNSS-G Phase RMS:   3.882 [mm]   Obs.acc.:     14302 Obs.eli.:      1334  C
/* C SLR          RMS:   1.583 [cm]   Obs.acc.:        50 Obs.eli.:         0  C
/* C                                                                           C
/* CCCCCCCCCCCCCCCCCCCCCCCCCCCCCCCCCCCCCCCCCCCCCCCCCCCCCCCCCCCCCCCCCCCCCCCCCCCCC
*  2023  1  2 14 40 30.00000000
PL65  -4077.776667  -4698.474128   2931.707407  16644.848161
VL65 -23612.273279 -22550.615682 -68794.167495 999999.999999
*  2023  1  2 14 41  0.00000000
PL65  -4146.505679  -4763.382047   2723.741783  16645.314759
VL65 -22201.520827 -20718.378556 -69836.815767 999999.999999
*  2023  1  2 14 41 30.00000000
PL65  -4210.953254  -4822.767771   2512.763685  16645.781117
VL65 -20758.232629 -18869.513850 -70802.295062 999999.999999
*  2023  1  2 14 42  0.00000000
PL65  -4271.024060  -4876.584680   2299.006268  16646.247269
VL65 -19283.931966 -17006.199115 -71689.521847 999999.999999
*  2023  1  2 14 42 30.00000000
PL65  -4326.627400  -4924.792704   2082.705805  16646.713580
VL65 -17780.186978 -15130.622191 -72497.500439 999999.999999
*  2023  1  2 14 43  0.00000000
PL65  -4377.677347  -4967.358346   1864.101423  16647.179759
VL65 -16248.608629 -13244.978382 -73225.323635 999999.999999
*  2023  1  2 14 43 30.00000000
PL65  -4424.092870  -5004.254707   1643.434839  16647.646132
VL65 -14690.849129 -11351.468336 -73872.173523 999999.999999
*  2023  1  2 14 44  0.00000000
PL65  -4465.797952  -5035.461494   1420.950086  16648.112766
VL65 -13108.600319  -9452.295677 -74437.322888 999999.999999
*  2023  1  2 14 44 30.00000000
PL65  -4502.721711  -5060.965023   1196.893241  16648.579847
VL65 -11503.591820  -7549.664100 -74920.136504 999999.999999
*  2023  1  2 14 45  0.00000000
PL65  -4534.798507  -5080.758220    971.512148  16649.047438
VL65  -9877.588968  -5645.774307 -75320.072067 999999.999999
*  2023  1  2 14 45 30.00000000
PL65  -4561.968048  -5094.840605    745.056139  16649.515127
VL65  -8232.390636  -3742.821150 -75636.680559 999999.999999
*  2023  1  2 14 46  0.00000000
PL65  -4584.175485  -5103.218271    517.775750  16649.982000
VL65  -6569.827447  -1842.991349 -75869.606717 999999.999999
*  2023  1  2 14 46 30.00000000
PL65  -4601.371507  -5105.903854    289.922444  16650.448494
VL65  -4891.759659     51.538954 -76018.590108 999999.999999
*  2023  1  2 14 47  0.00000000
PL65  -4613.512425  -5102.916500     61.748320  16650.914718
VL65  -3200.074555   1938.607077 -76083.465777 999999.999999
*  2023  1  2 14 47 30.00000000
PL65  -4620.560248  -5094.281820   -166.494170  16651.381168
VL65  -1496.684086   3816.066578 -76064.164434 999999.999999
*  2023  1  2 14 48  0.00000000
PL65  -4622.482758  -5080.031837   -394.552513  16651.847611
VL65    216.477480   5681.790054 -75960.712758 999999.999999
*  2023  1  2 14 48 30.00000000
PL65  -4619.253566  -5060.204922   -622.174416  16652.313945
VL65   1937.456200   7533.672097 -75773.233405 999999.999999
*  2023  1  2 14 49  0.00000000
PL65  -4610.852174  -5034.845728   -849.108100  16652.780058
VL65   3664.281106   9369.632082 -75501.944580 999999.999999
*  2023  1  2 14 49 30.00000000
PL65  -4597.264018  -5004.005106  -1075.102584  16653.246535
VL65   5394.966803  11187.616662 -75147.159423 999999.999999
*  2023  1  2 14 50  0.00000000
PL65  -4578.480509  -4967.740028  -1299.907965  16653.713349
VL65   7127.515779  12985.602085 -74709.285327 999999.999999
*  2023  1  2 14 50 30.00000000
PL65  -4554.499067  -4926.113486  -1523.275705  16654.180029
VL65   8859.920515  14761.596643 -74188.823621 999999.999999
*  2023  1  2 14 51  0.00000000
PL65  -4525.323145  -4879.194397  -1744.958911  16654.646628
VL65  10590.166127  16513.643522 -73586.369050 999999.999999
*  2023  1  2 14 51 30.00000000
PL65  -4490.962249  -4827.057493  -1964.712610  16655.113110
VL65  12316.233148  18239.823288 -72902.608433 999999.999999
*  2023  1  2 14 52  0.00000000
PL65  -4451.431946  -4769.783206  -2182.294030  16655.579690
VL65  14036.100080  19938.255689 -72138.319330 999999.999999
*  2023  1  2 14 52 30.00000000
PL65  -4406.753870  -4707.457547  -2397.462862  16656.045662
VL65  15747.745894  21607.101389 -71294.369015 999999.999999
*  2023  1  2 14 53  0.00000000
PL65  -4356.955711  -4640.171982  -2609.981536  16656.511468
VL65  17449.152330  23244.563870 -70371.713432 999999.999999
*  2023  1  2 14 53 30.00000000
PL65  -4302.071209  -4568.023300  -2819.615478  16656.977486
VL65  19138.306158  24848.891593 -69371.396292 999999.999999
*  2023  1  2 14 54  0.00000000
PL65  -4242.140132  -4491.113473  -3026.133379  16657.443593
VL65  20813.201939  26418.380455 -68294.547851 999999.999999
*  2023  1  2 14 54 30.00000000
PL65  -4177.208250  -4409.549512  -3229.307446  16657.909725
VL65  22471.844925  27951.375863 -67142.382809 999999.999999
*  2023  1  2 14 55  0.00000000
PL65  -4107.327298  -4323.443317  -3428.913654  16658.375880
VL65  24112.253413  29446.273976 -65916.198103 999999.999999
*  2023  1  2 14 55 30.00000000
PL65  -4032.554932  -4232.911520  -3624.731990  16658.842373
VL65  25732.460692  30901.522786 -64617.371368 999999.999999
*  2023  1  2 14 56  0.00000000
PL65  -3952.954685  -4138.075330  -3816.546695  16659.308846
VL65  27330.517069  32315.623772 -63247.359820 999999.999999
*  2023  1  2 14 56 30.00000000
PL65  -3868.595911  -4039.060370  -4004.146497  16659.775172
VL65  28904.492237  33687.133859 -61807.698697 999999.999999
*  2023  1  2 14 57  0.00000000
PL65  -3779.553722  -3935.996506  -4187.324846  16660.241167
VL65  30452.477915  35014.667025 -60299.999335 999999.999999
*  2023  1  2 14 57 30.00000000
PL65  -3685.908917  -3829.017674  -4365.880137  16660.707258
VL65  31972.590574  36296.895781 -58725.946922 999999.999999
*  2023  1  2 14 58  0.00000000
PL65  -3587.747909  -3718.261705  -4539.615929  16661.173590
VL65  33462.973695  37532.552453 -57087.297918 999999.999999
*  2023  1  2 14 58 30.00000000
PL65  -3485.162633  -3603.870140  -4708.341151  16661.639954
VL65  34921.799723  38720.430184 -55385.877626 999999.999999
*  2023  1  2 14 59  0.00000000
PL65  -3378.250465  -3485.988050  -4871.870313  16662.106446
VL65  36347.271992  39859.383800 -53623.577998 999999.999999
*  2023  1  2 14 59 30.00000000
PL65  -3267.114120  -3364.763846  -5030.023694  16662.572773
VL65  37737.626678  40948.330740 -51802.355504 999999.999999
*  2023  1  2 15  0  0.00000000
PL65  -3151.861553  -3240.349094  -5182.627540  16663.039115
VL65  39091.134845  41986.251992 -49924.228901 999999.999999
*  2023  1  2 15  0 30.00000000
PL65  -3032.605851  -3112.898317  -5329.514240  16663.505412
VL65  40406.104603  42972.192869 -47991.276777 999999.999999
*  2023  1  2 15  1  0.00000000
PL65  -2909.465118  -2982.568809  -5470.522509  16663.971851
VL65  41680.883040  43905.263496 -46005.634825 999999.999999
*  2023  1  2 15  1 30.00000000
PL65  -2782.562358  -2849.520434  -5605.497548  16664.438374
VL65  42913.857524  44784.638667 -43969.493577 999999.999999
*  2023  1  2 15  2  0.00000000
PL65  -2652.025349  -2713.915435  -5734.291214  16664.904909
VL65  44103.457439  45609.558200 -41885.097627 999999.999999
*  2023  1  2 15  2 30.00000000
PL65  -2517.986515  -2575.918235  -5856.762175  16665.371384
VL65  45248.157255  46379.328969 -39754.743752 999999.999999
*  2023  1  2 15  3  0.00000000
PL65  -2380.582785  -2435.695237  -5972.776062  16665.837812
VL65  46346.479071  47093.326172 -37580.776472 999999.999999
*  2023  1  2 15  3 30.00000000
PL65  -2239.955449  -2293.414611  -6082.205607  16666.304279
VL65  47396.993888  47750.992839 -35365.584261 999999.999999
*  2023  1  2 15  4  0.00000000
PL65  -2096.250009  -2149.246102  -6184.930771  16666.770694
VL65  48398.322870  48351.839416 -33111.596859 999999.999999
*  2023  1  2 15  4 30.00000000
PL65  -1949.616027  -2003.360819  -6280.838860  16667.237073
VL65  49349.138461  48895.443496 -30821.282656 999999.999999
*  2023  1  2 15  5  0.00000000
PL65  -1800.206969  -1855.931041  -6369.824644  16667.703448
VL65  50248.165368  49381.449708 -28497.146658 999999.999999
*  2023  1  2 15  5 30.00000000
PL65  -1648.180047  -1707.130009  -6451.790457  16668.169747
VL65  51094.182135  49809.570254 -26141.728441 999999.999999
EOF
